{
  "type": "Feature",
  "properties": {
    "description": "Probable oil-spill origin area",
    "observation_time": "2018-08-21T12:00:00Z",
    "estimated_origin_time": "2018-08-20T12:00:00Z",
    "particle_count": 500
  },
  "geometry": {
    "type": "Polygon",
    "coordinates": [
      [
        [
          -88.55331810141755,
          28.714174366196474
        ],
        [
          -88.51552623570514,
          29.07683710981377
        ],
        [
          -88.51646571234296,
          29.08839024161404
        ],
        [
          -88.54919880032058,
          29.12614694558282
        ],
        [
          -89.07591855640487,
          29.152470697598968
        ],
        [
          -89.25557876045264,
          28.849113866308784
        ],
        [
          -89.25716661907586,
          28.84481417455197
        ],
        [
          -89.27460663809883,
          28.79493259649507
        ],
        [
          -89.2545173855159,
          28.775345952967825
        ],
        [
          -89.13443491820418,
          28.704262169659266
        ],
        [
          -88.95227349891702,
          28.695327433974153
        ],
        [
          -88.84224089764277,
          28.697483220731108
        ],
        [
          -88.66305678558399,
          28.704437279860862
        ],
        [
          -88.55331810141755,
          28.714174366196474
        ]
      ]
    ]
  }
}