{
  "type": "Feature",
  "properties": {
    "description": "Forecasted spill spread envelope at end of simulation",
    "forecast_start_time": "2018-08-20T12:00:00Z",
    "forecast_end_time": "2018-08-21T12:00:00Z",
    "duration_hours": 24
  },
  "geometry": {
    "type": "Polygon",
    "coordinates": [
      [
        [
          -89.20715268911923,
          29.079356410971364
        ],
        [
          -89.15969054831005,
          28.82101475595259
        ],
        [
          -88.60750223719079,
          28.81787304533745
        ],
        [
          -88.41828079916584,
          28.82550173952414
        ],
        [
          -88.40746159270341,
          28.843307159830616
        ],
        [
          -88.36661274963032,
          28.924262306327186
        ],
        [
          -88.38241525125082,
          28.986256947798065
        ],
        [
          -88.44600930205358,
          29.193386119539376
        ],
        [
          -88.46915939717786,
          29.23969329279265
        ],
        [
          -88.57274032806413,
          29.356847667786564
        ],
        [
          -88.64338731316353,
          29.41371278878793
        ],
        [
          -88.67702952474478,
          29.42419167092922
        ],
        [
          -88.74180954019073,
          29.40383709170175
        ],
        [
          -89.19862700277386,
          29.224914997422587
        ],
        [
          -89.20279866763275,
          29.163258833471485
        ],
        [
          -89.20715268911923,
          29.079356410971364
        ]
      ]
    ]
  }
}